POPACS 3                
1 39270U 13055F   26067.78556540  .00019405  00000+0  46790-3 0  9993
2 39270  81.0053 337.8959 0560367  15.4614 346.2932 14.53938339623954
STARLINK-34401          
1 64757U 25147C   26068.73181365  .00018918  00000+0  64941-3 0  9997
2 64757  53.1596 242.8826 0001061  53.5782 306.5317 15.30191190 38680
