[{"OBJECT_NAME":"POPACS 3","OBJECT_ID":"2013-055F","EPOCH":"2026-03-08T18:51:12.850560","MEAN_MOTION":14.53938339,"ECCENTRICITY":0.05603673,"INCLINATION":81.0053,"RA_OF_ASC_NODE":337.8959,"ARG_OF_PERICENTER":15.4614,"MEAN_ANOMALY":346.2932,"EPHEMERIS_TYPE":0,"CLASSIFICATION_TYPE":"U","NORAD_CAT_ID":39270,"ELEMENT_SET_NO":999,"REV_AT_EPOCH":62395,"BSTAR":0.00046789991,"MEAN_MOTION_DOT":0.00019405,"MEAN_MOTION_DDOT":0},{"OBJECT_NAME":"STARLINK-34401","OBJECT_ID":"2025-147C","EPOCH":"2026-03-09T17:33:48.700224","MEAN_MOTION":15.3019119,"ECCENTRICITY":0.00010615,"INCLINATION":53.1596,"RA_OF_ASC_NODE":242.8826,"ARG_OF_PERICENTER":53.5782,"MEAN_ANOMALY":306.5317,"EPHEMERIS_TYPE":0,"CLASSIFICATION_TYPE":"U","NORAD_CAT_ID":64757,"ELEMENT_SET_NO":999,"REV_AT_EPOCH":3868,"BSTAR":0.00064941035,"MEAN_MOTION_DOT":0.00018918,"MEAN_MOTION_DDOT":0}]
